     2.100          NAVIGATION                              RINEX VERSION / TYPE
fic2rin                                 10/12/2013 00:14:10 PGM / RUN BY / DATE
                                                            END OF HEADER
15 13 10 11 18  0  0.0 -.141466502100D-03 -.193267624127D-11  .000000000000D+00
     .510000000000D+02  .315312500000D+02  .490341853278D-08 -.244068347181D+01
     .164657831192D-05  .565850280691D-02  .952556729317D-05  .515357782745D+04
     .496800000000D+06 -.465661287308D-07 -.178685123373D+01  .186264514923D-08
     .939079701582D+00  .186625000000D+03  .160570466233D+00 -.819712715753D-08
    -.208937274505D-09  .100000000000D+01  .176100000000D+04  .000000000000D+00
     .240000000000D+01  .000000000000D+00 -.977888703346D-08  .510000000000D+02
     .489606000000D+06  .400000000000D+01
16 13 10 11 18  0  0.0 -.244733411819D-03  .909494701773D-12  .000000000000D+00
     .480000000000D+02 -.571250000000D+02  .407124101210D-08 -.759214754673D+00
    -.295229256153D-05  .706752645783D-02  .498443841934D-05  .515372810745D+04
     .496800000000D+06  .596046447754D-07  .392475138199D+00 -.596046447754D-07
     .986341558136D+00  .291312500000D+03  .136930829204D+00 -.812355266429D-08
     .228580949885D-10  .100000000000D+01  .176100000000D+04  .000000000000D+00
     .240000000000D+01  .000000000000D+00 -.977888703346D-08  .480000000000D+02
     .489606000000D+06  .400000000000D+01
17 13 10 11 18  0  0.0 -.300016254187D-04 -.352429196937D-11  .000000000000D+00
     .150000000000D+02 -.832187500000D+02  .434268089009D-08 -.171036689073D+01
    -.420585274696D-05  .859501957893D-02  .954046845436D-05  .515369606209D+04
     .496800000000D+06  .175088644028D-06  .142744504858D+01 -.186264514923D-07
     .966265541273D+00  .196031250000D+03 -.219057997020D+01 -.784532678935D-08
     .180364655769D-09  .100000000000D+01  .176100000000D+04  .000000000000D+00
     .240000000000D+01  .000000000000D+00 -.102445483208D-07  .150000000000D+02
     .489606000000D+06  .400000000000D+01
18 13 10 11 18  0  0.0  .278808642179D-03  .204636307899D-11  .000000000000D+00
     .640000000000D+02  .553125000000D+01  .571166648526D-08 -.192730499496D+00
     .359490513802D-06  .145732004894D-01  .711344182491D-05  .515363723373D+04
     .496800000000D+06 -.931322574615D-07 -.280561910548D+01  .128522515297D-06
     .927044176528D+00  .226437500000D+03 -.207502858129D+01 -.891608567647D-08
    -.297869550320D-09  .100000000000D+01  .176100000000D+04  .000000000000D+00
     .240000000000D+01  .000000000000D+00 -.107102096081D-07  .640000000000D+02
     .489606000000D+06  .400000000000D+01
19 13 10 11 18  0  0.0 -.410637818277D-03 -.272848410532D-11  .000000000000D+00
     .920000000000D+02 -.665937500000D+02  .439125434194D-08 -.256284427924D+01
    -.361725687981D-05  .955773913302D-02  .107344239950D-04  .515375457573D+04
     .496800000000D+06 -.633299350739D-07  .147899852453D+01 -.186264514923D-06
     .963443851715D+00  .174312500000D+03  .390135661551D+00 -.789282876800D-08
     .225366530278D-09  .100000000000D+01  .176100000000D+04  .000000000000D+00
     .240000000000D+01  .000000000000D+00 -.144354999065D-07  .920000000000D+02
     .489606000000D+06  .400000000000D+01
21 13 10 11 18  0  0.0 -.323073007166D-03 -.181898940355D-11  .000000000000D+00
     .740000000000D+02  .993750000000D+01  .558844706697D-08  .828998763172D+00
     .728294253349D-06  .206021971535D-01  .879168510437D-05  .515361709404D+04
     .496800000000D+06 -.266358256340D-06  .243120652464D+01  .132247805595D-06
     .931861567226D+00  .201750000000D+03 -.209977938360D+01 -.886001191220D-08
     .714315468392D-10  .100000000000D+01  .176100000000D+04  .000000000000D+00
     .240000000000D+01  .000000000000D+00 -.111758708954D-07  .740000000000D+02
     .489606000000D+06  .400000000000D+01
22 13 10 11 18  0  0.0  .189200043678D-03  .193267624127D-11  .000000000000D+00
     .200000000000D+02  .265625000000D+01  .566023577154D-08 -.769339789176D+00
     .745058059692D-07  .674375100061D-02  .701285898685D-05  .515364443588D+04
     .496800000000D+06 -.102445483208D-06 -.280328391079D+01  .132247805595D-06
     .924802064392D+00  .224437500000D+03 -.203695842482D+01 -.870464829783D-08
    -.353586156854D-09  .100000000000D+01  .176100000000D+04  .000000000000D+00
     .240000000000D+01  .000000000000D+00 -.172294676304D-07  .200000000000D+02
     .489606000000D+06  .400000000000D+01
23 13 10 11 18  0  0.0  .401614233851D-04 -.341060513165D-11  .000000000000D+00
     .910000000000D+02  .557187500000D+02  .446732893932D-08 -.298113776959D+01
     .272877514362D-05  .886993610766D-02  .990368425846D-05  .515365352631D+04
     .496800000000D+06 -.949949026108D-07 -.174359605525D+01 -.104308128357D-06
     .954050055351D+00  .184375000000D+03 -.281476364547D+01 -.792711591048D-08
    -.311798701953D-09  .100000000000D+01  .176100000000D+04  .000000000000D+00
     .340000000000D+01  .000000000000D+00 -.200234353542D-07  .910000000000D+02
     .489606000000D+06  .400000000000D+01
24 13 10 11 18  0  0.0 -.153407454491D-04 -.682121026330D-12  .000000000000D+00
     .164000000000D+03  .634687500000D+02  .450340187048D-08  .274263859208D+01
     .340119004250D-05  .114354235120D-02  .580400228500D-05  .515365609550D+04
     .496800000000D+06 -.353902578354D-07 -.716557955035D+00 -.931322574615D-08
     .958284884275D+00  .264406250000D+03  .129266595535D+00 -.824498629392D-08
     .163935399996D-09  .100000000000D+01  .176100000000D+04  .000000000000D+00
     .340000000000D+01  .000000000000D+00  .325962901115D-08  .164000000000D+03
     .489606000000D+06  .400000000000D+01
25 13 10 11 18  0  0.0  .156434252858D-03  .375166564481D-11  .000000000000D+00
     .110000000000D+02 -.426875000000D+02  .432518016111D-08  .453265303359D+00
    -.237673521042D-05  .273832387757D-02  .495277345181D-05  .515371559906D+04
     .496800000000D+06  .242143869400D-07  .334233737674D+00 -.558793544769D-08
     .974493312929D+00  .293343750000D+03  .724127597884D+00 -.821748514838D-08
     .535736601294D-11  .100000000000D+01  .176100000000D+04  .000000000000D+00
     .240000000000D+01  .000000000000D+00  .558793544769D-08  .110000000000D+02
     .489606000000D+06  .400000000000D+01
26 13 10 11 18  0  0.0  .233608763665D-03  .189857018995D-10  .000000000000D+00
     .176000000000D+03  .463750000000D+02  .385230332104D-08 -.297196160423D+01
     .241585075855D-05  .210733800195D-01  .991113483906D-05  .515368820572D+04
     .496800000000D+06  .188127160072D-06 -.166000848426D+01 -.875443220139D-07
     .977233545745D+00  .192718750000D+03  .125214424662D+01 -.741030866910D-08
    -.191793703263D-09  .100000000000D+01  .176100000000D+04  .000000000000D+00
     .340000000000D+01  .000000000000D+00 -.558793544769D-08  .176000000000D+03
     .489606000000D+06  .400000000000D+01
27 13 10 11 18  0  0.0 -.467021018267D-04 -.420641299570D-11  .000000000000D+00
     .410000000000D+02 -.701562500000D+02  .446911472800D-08 -.249121298703D+01
    -.376440584660D-05  .439662020653D-03  .101048499346D-04  .515367119980D+04
     .496800000000D+06 -.745058059692D-08  .138334342277D+01 -.167638063431D-07
     .960900587652D+00  .184093750000D+03  .892026593197D+00 -.803104881113D-08
     .137862885400D-09  .100000000000D+01  .176100000000D+04  .000000000000D+00
     .240000000000D+01  .000000000000D+00  .186264514923D-08  .410000000000D+02
     .489606000000D+06  .400000000000D+01
28 13 10 11 18  0  0.0  .299764797091D-03  .306954461848D-11  .000000000000D+00
     .390000000000D+02 -.473750000000D+02  .426303471536D-08 -.916964558317D+00
    -.214204192162D-05  .188584604766D-01  .493600964546D-05  .515365202141D+04
     .496800000000D+06 -.214204192162D-06  .398548271444D+00  .355765223503D-06
     .984811932456D+00  .301156250000D+03 -.176155508629D+01 -.840177853923D-08
     .292869342041D-10  .100000000000D+01  .176100000000D+04  .000000000000D+00
     .240000000000D+01  .000000000000D+00 -.107102096081D-07  .390000000000D+02
     .489606000000D+06  .400000000000D+01
29 13 10 11 18  0  0.0  .478016212583D-03  .318323145621D-11  .000000000000D+00
     .270000000000D+02 -.579687500000D+02  .441054085959D-08  .116635884017D+01
    -.297091901302D-05  .142150733154D-02  .917352735996D-05  .515357047653D+04
     .496800000000D+06  .391155481339D-07  .143632656760D+01 -.465661287308D-07
     .966936728087D+00  .209937500000D+03 -.100975385623D+01 -.796783189218D-08
     .175364447490D-09  .100000000000D+01  .176100000000D+04  .000000000000D+00
     .240000000000D+01  .000000000000D+00 -.931322574615D-08  .270000000000D+02
     .489606000000D+06  .400000000000D+01
31 13 10 11 18  0  0.0  .327684916556D-03  .682121026330D-12  .000000000000D+00
     .240000000000D+02  .567187500000D+02  .399659504565D-08  .178563576971D+01
     .305846333504D-05  .799650629051D-02  .537186861038D-05  .515368900299D+04
     .496800000000D+06  .104308128357D-06 -.680609958731D+00  .137835741043D-06
     .979814971489D+00  .282843750000D+03 -.730810345184D+00 -.791568686299D-08
     .757174396496D-10  .100000000000D+01  .176100000000D+04  .000000000000D+00
     .240000000000D+01  .000000000000D+00 -.130385160446D-07  .240000000000D+02
     .489606000000D+06  .400000000000D+01
32 13 10 11 18  0  0.0 -.541365239769D-03  .352429196937D-11  .000000000000D+00
     .810000000000D+02  .133437500000D+02  .497234997548D-08  .224720081298D+01
     .733882188797D-06  .116201781202D-01  .790134072304D-05  .515357445908D+04
     .496800000000D+06 -.186264514923D-07 -.271641279238D+01  .270083546638D-06
     .948955756205D+00  .219968750000D+03 -.273622099722D+00 -.816498296146D-08
    -.416803075807D-09  .100000000000D+01  .176100000000D+04  .000000000000D+00
     .240000000000D+01  .000000000000D+00 -.279396772385D-08  .810000000000D+02
     .489606000000D+06  .400000000000D+01
